DEAR-5                  
1 67070U 25296B   26001.98043685  .00010050  00000+0  50573-3 0  9994
2 67070  41.3576 346.1114 0019423 162.9477 197.2000 15.17023111  3029
RAISE-4                 
1 67073U 25297B   26001.94778347  .00008918  00000+0  59278-3 0  9995
2 67073  97.4861 153.9537 0011444 244.8133 115.1909 15.07355188  2834
ELECTRON KICK STAGE R/B 
1 67074U 25297C   26001.96449194  .00521527  82416-4  22404-2 0  9995
2 67074  97.4784 155.4868 0168193 196.0579 163.5315 15.66748856  2931
STARLINK-36230          
1 67075U 25298A   26001.91668981 -.00069257  00000+0 -11315-2 0  9991
2 67075  69.9993 192.9669 0003927 274.5445  37.3531 15.52548559  4214
STARLINK-36240          
1 67076U 25298B   26001.91668981 -.00060356  00000+0 -98477-3 0  9998
2 67076  69.9995 192.9648 0003831 278.6701  35.1428 15.52544672  4211
STARLINK-36243          
1 67077U 25298C   26001.91668981 -.00070275  00000+0 -11485-2 0  9993
2 67077  69.9991 192.9632 0003730 277.9662  37.7693 15.52546337  4219
STARLINK-36236          
1 67078U 25298D   26001.91668981 -.00067081  00000+0 -10957-2 0  9998
2 67078  69.9995 192.9608 0003689 276.8128  40.8381 15.52545352  4210
STARLINK-36159          
1 67079U 25298E   26001.91668981 -.02017531  00000+0 -44705-1 0  9993
2 67079  69.9991 193.0384 0003297 274.7231 334.6962 15.46951143  4218
STARLINK-36158          
1 67080U 25298F   26001.91668981  .00077216  00000+0  12480-2 0  9993
2 67080  69.9994 192.9553 0003789 271.2526  50.2291 15.52465971  4159
STARLINK-35864          
1 67081U 25298G   26001.91668981 -.00069661  00000+0 -11384-2 0  9993
2 67081  69.9991 192.9540 0003627 277.6924  45.7107 15.52545005  4215
STARLINK-36035          
1 67082U 25298H   26001.91668981 -.00067491  00000+0 -11025-2 0  9995
2 67082  69.9991 192.9521 0003565 276.1996  49.1172 15.52545448  4210
STARLINK-36170          
1 67083U 25298J   26001.91668981 -.00069374  00000+0 -11336-2 0  9993
2 67083  69.9991 192.9491 0003687 276.8105  50.4230 15.52546283  4219
