CCSDS_OMM_VERS = 2.0
CREATION_DATE  = 
ORIGINATOR     = 

OBJECT_NAME    = DEAR-5
OBJECT_ID      = 2025-296B
CENTER_NAME    = EARTH
REF_FRAME      = TEME
TIME_SYSTEM    = UTC
MEAN_ELEMENT_THEORY = SGP/SGP4

EPOCH          = 2026-01-01T23:31:49.743840
MEAN_MOTION    = 15.17023111
ECCENTRICITY   = .0019423
INCLINATION    = 41.3576
RA_OF_ASC_NODE = 346.1114
ARG_OF_PERICENTER = 162.9477
MEAN_ANOMALY   = 197.2000

EPHEMERIS_TYPE = 0
CLASSIFICATION_TYPE = U
NORAD_CAT_ID   = 67070
ELEMENT_SET_NO = 999
REV_AT_EPOCH   = 302
BSTAR          = .50573091E-3
MEAN_MOTION_DOT = .1005E-3
MEAN_MOTION_DDOT = 0

CCSDS_OMM_VERS = 2.0
CREATION_DATE  = 
ORIGINATOR     = 

OBJECT_NAME    = RAISE-4
OBJECT_ID      = 2025-297B
CENTER_NAME    = EARTH
REF_FRAME      = TEME
TIME_SYSTEM    = UTC
MEAN_ELEMENT_THEORY = SGP/SGP4

EPOCH          = 2026-01-01T22:44:48.491808
MEAN_MOTION    = 15.07355188
ECCENTRICITY   = .00114441
INCLINATION    = 97.4861
RA_OF_ASC_NODE = 153.9537
ARG_OF_PERICENTER = 244.8133
MEAN_ANOMALY   = 115.1909

EPHEMERIS_TYPE = 0
CLASSIFICATION_TYPE = U
NORAD_CAT_ID   = 67073
ELEMENT_SET_NO = 999
REV_AT_EPOCH   = 283
BSTAR          = .59277523E-3
MEAN_MOTION_DOT = .8918E-4
MEAN_MOTION_DDOT = 0

CCSDS_OMM_VERS = 2.0
CREATION_DATE  = 
ORIGINATOR     = 

OBJECT_NAME    = ELECTRON KICK STAGE R/B
OBJECT_ID      = 2025-297C
CENTER_NAME    = EARTH
REF_FRAME      = TEME
TIME_SYSTEM    = UTC
MEAN_ELEMENT_THEORY = SGP/SGP4

EPOCH          = 2026-01-01T23:08:52.103616
MEAN_MOTION    = 15.66748856
ECCENTRICITY   = .01681936
INCLINATION    = 97.4784
RA_OF_ASC_NODE = 155.4868
ARG_OF_PERICENTER = 196.0579
MEAN_ANOMALY   = 163.5315

EPHEMERIS_TYPE = 0
CLASSIFICATION_TYPE = U
NORAD_CAT_ID   = 67074
ELEMENT_SET_NO = 999
REV_AT_EPOCH   = 293
BSTAR          = .22404109E-2
MEAN_MOTION_DOT = .521527E-2
MEAN_MOTION_DDOT = .82416269E-4

CCSDS_OMM_VERS = 2.0
CREATION_DATE  = 
ORIGINATOR     = 

OBJECT_NAME    = STARLINK-36230
OBJECT_ID      = 2025-298A
CENTER_NAME    = EARTH
REF_FRAME      = TEME
TIME_SYSTEM    = UTC
MEAN_ELEMENT_THEORY = SGP/SGP4

EPOCH          = 2026-01-01T22:00:01.999584
MEAN_MOTION    = 15.52548559
ECCENTRICITY   = .00039272
INCLINATION    = 69.9993
RA_OF_ASC_NODE = 192.9669
ARG_OF_PERICENTER = 274.5445
MEAN_ANOMALY   = 37.3531

EPHEMERIS_TYPE = 0
CLASSIFICATION_TYPE = U
NORAD_CAT_ID   = 67075
ELEMENT_SET_NO = 999
REV_AT_EPOCH   = 421
BSTAR          = -.11314885E-2
MEAN_MOTION_DOT = -.69257E-3
MEAN_MOTION_DDOT = 0

CCSDS_OMM_VERS = 2.0
CREATION_DATE  = 
ORIGINATOR     = 

OBJECT_NAME    = STARLINK-36240
OBJECT_ID      = 2025-298B
CENTER_NAME    = EARTH
REF_FRAME      = TEME
TIME_SYSTEM    = UTC
MEAN_ELEMENT_THEORY = SGP/SGP4

EPOCH          = 2026-01-01T22:00:01.999584
MEAN_MOTION    = 15.52544672
ECCENTRICITY   = .00038316
INCLINATION    = 69.9995
RA_OF_ASC_NODE = 192.9648
ARG_OF_PERICENTER = 278.6701
MEAN_ANOMALY   = 35.1428

EPHEMERIS_TYPE = 0
CLASSIFICATION_TYPE = U
NORAD_CAT_ID   = 67076
ELEMENT_SET_NO = 999
REV_AT_EPOCH   = 421
BSTAR          = -.98477373E-3
MEAN_MOTION_DOT = -.60356E-3
MEAN_MOTION_DDOT = 0

CCSDS_OMM_VERS = 2.0
CREATION_DATE  = 
ORIGINATOR     = 

OBJECT_NAME    = STARLINK-36243
OBJECT_ID      = 2025-298C
CENTER_NAME    = EARTH
REF_FRAME      = TEME
TIME_SYSTEM    = UTC
MEAN_ELEMENT_THEORY = SGP/SGP4

EPOCH          = 2026-01-01T22:00:01.999584
MEAN_MOTION    = 15.52546337
ECCENTRICITY   = .00037305
INCLINATION    = 69.9991
RA_OF_ASC_NODE = 192.9632
ARG_OF_PERICENTER = 277.9662
MEAN_ANOMALY   = 37.7693

EPHEMERIS_TYPE = 0
CLASSIFICATION_TYPE = U
NORAD_CAT_ID   = 67077
ELEMENT_SET_NO = 999
REV_AT_EPOCH   = 421
BSTAR          = -.11484506E-2
MEAN_MOTION_DOT = -.70275E-3
MEAN_MOTION_DDOT = 0

CCSDS_OMM_VERS = 2.0
CREATION_DATE  = 
ORIGINATOR     = 

OBJECT_NAME    = STARLINK-36236
OBJECT_ID      = 2025-298D
CENTER_NAME    = EARTH
REF_FRAME      = TEME
TIME_SYSTEM    = UTC
MEAN_ELEMENT_THEORY = SGP/SGP4

EPOCH          = 2026-01-01T22:00:01.999584
MEAN_MOTION    = 15.52545352
ECCENTRICITY   = .00036898
INCLINATION    = 69.9995
RA_OF_ASC_NODE = 192.9608
ARG_OF_PERICENTER = 276.8128
MEAN_ANOMALY   = 40.8381

EPHEMERIS_TYPE = 0
CLASSIFICATION_TYPE = U
NORAD_CAT_ID   = 67078
ELEMENT_SET_NO = 999
REV_AT_EPOCH   = 421
BSTAR          = -.10957405E-2
MEAN_MOTION_DOT = -.67081E-3
MEAN_MOTION_DDOT = 0

CCSDS_OMM_VERS = 2.0
CREATION_DATE  = 
ORIGINATOR     = 

OBJECT_NAME    = STARLINK-36159
OBJECT_ID      = 2025-298E
CENTER_NAME    = EARTH
REF_FRAME      = TEME
TIME_SYSTEM    = UTC
MEAN_ELEMENT_THEORY = SGP/SGP4

EPOCH          = 2026-01-01T22:00:01.999584
MEAN_MOTION    = 15.46951143
ECCENTRICITY   = .00032976
INCLINATION    = 69.9991
RA_OF_ASC_NODE = 193.0384
ARG_OF_PERICENTER = 274.7231
MEAN_ANOMALY   = 334.6962

EPHEMERIS_TYPE = 0
CLASSIFICATION_TYPE = U
NORAD_CAT_ID   = 67079
ELEMENT_SET_NO = 999
REV_AT_EPOCH   = 421
BSTAR          = -.44704765E-1
MEAN_MOTION_DOT = -.2017531E-1
MEAN_MOTION_DDOT = 0

CCSDS_OMM_VERS = 2.0
CREATION_DATE  = 
ORIGINATOR     = 

OBJECT_NAME    = STARLINK-36158
OBJECT_ID      = 2025-298F
CENTER_NAME    = EARTH
REF_FRAME      = TEME
TIME_SYSTEM    = UTC
MEAN_ELEMENT_THEORY = SGP/SGP4

EPOCH          = 2026-01-01T22:00:01.999584
MEAN_MOTION    = 15.52465971
ECCENTRICITY   = .0003789
INCLINATION    = 69.9994
RA_OF_ASC_NODE = 192.9553
ARG_OF_PERICENTER = 271.2526
MEAN_ANOMALY   = 50.2291

EPHEMERIS_TYPE = 0
CLASSIFICATION_TYPE = U
NORAD_CAT_ID   = 67080
ELEMENT_SET_NO = 999
REV_AT_EPOCH   = 415
BSTAR          = .12479682E-2
MEAN_MOTION_DOT = .77216E-3
MEAN_MOTION_DDOT = 0

CCSDS_OMM_VERS = 2.0
CREATION_DATE  = 
ORIGINATOR     = 

OBJECT_NAME    = STARLINK-35864
OBJECT_ID      = 2025-298G
CENTER_NAME    = EARTH
REF_FRAME      = TEME
TIME_SYSTEM    = UTC
MEAN_ELEMENT_THEORY = SGP/SGP4

EPOCH          = 2026-01-01T22:00:01.999584
MEAN_MOTION    = 15.52545005
ECCENTRICITY   = .00036272
INCLINATION    = 69.9991
RA_OF_ASC_NODE = 192.9540
ARG_OF_PERICENTER = 277.6924
MEAN_ANOMALY   = 45.7107

EPHEMERIS_TYPE = 0
CLASSIFICATION_TYPE = U
NORAD_CAT_ID   = 67081
ELEMENT_SET_NO = 999
REV_AT_EPOCH   = 421
BSTAR          = -.11383747E-2
MEAN_MOTION_DOT = -.69661E-3
MEAN_MOTION_DDOT = 0

CCSDS_OMM_VERS = 2.0
CREATION_DATE  = 
ORIGINATOR     = 

OBJECT_NAME    = STARLINK-36035
OBJECT_ID      = 2025-298H
CENTER_NAME    = EARTH
REF_FRAME      = TEME
TIME_SYSTEM    = UTC
MEAN_ELEMENT_THEORY = SGP/SGP4

EPOCH          = 2026-01-01T22:00:01.999584
MEAN_MOTION    = 15.52545448
ECCENTRICITY   = .00035658
INCLINATION    = 69.9991
RA_OF_ASC_NODE = 192.9521
ARG_OF_PERICENTER = 276.1996
MEAN_ANOMALY   = 49.1172

EPHEMERIS_TYPE = 0
CLASSIFICATION_TYPE = U
NORAD_CAT_ID   = 67082
ELEMENT_SET_NO = 999
REV_AT_EPOCH   = 421
BSTAR          = -.11025207E-2
MEAN_MOTION_DOT = -.67491E-3
MEAN_MOTION_DDOT = 0

CCSDS_OMM_VERS = 2.0
CREATION_DATE  = 
ORIGINATOR     = 

OBJECT_NAME    = STARLINK-36170
OBJECT_ID      = 2025-298J
CENTER_NAME    = EARTH
REF_FRAME      = TEME
TIME_SYSTEM    = UTC
MEAN_ELEMENT_THEORY = SGP/SGP4

EPOCH          = 2026-01-01T22:00:01.999584
MEAN_MOTION    = 15.52546283
ECCENTRICITY   = .00036872
INCLINATION    = 69.9991
RA_OF_ASC_NODE = 192.9491
ARG_OF_PERICENTER = 276.8105
MEAN_ANOMALY   = 50.4230

EPHEMERIS_TYPE = 0
CLASSIFICATION_TYPE = U
NORAD_CAT_ID   = 67083
ELEMENT_SET_NO = 999
REV_AT_EPOCH   = 421
BSTAR          = -.1133575E-2
MEAN_MOTION_DOT = -.69374E-3
MEAN_MOTION_DDOT = 0

